ONEWEB-0572             
1 55151U 23004M   26177.47980487  .00000034  00000+0  54308-4 0  9996
2 55151  87.9131   4.0165 0002026  93.5622 266.5741 13.17649035168703
ONEWEB-0573             
1 55152U 23004N   26177.67540958  .00000062  00000+0  12341-3 0  9995
2 55152  87.9169 333.5809 0002539 109.8484 250.2922 13.18687527170945
ONEWEB-0588             
1 55153U 23004P   26177.66867191  .00000130  00000+0  29703-3 0  9992
2 55153  87.9166 333.5823 0002378  92.4972 267.6432 13.18686303170948
ONEWEB-0598             
1 55154U 23004Q   26177.54476963  .00000476  00000+0  13074-2 0  9999
2 55154  87.8880  19.2053 0002046 108.0675 252.0676 13.11416467167129
ONEWEB-0599             
1 55155U 23004R   26177.74473892  .00000106  00000+0  23904-3 0  9994
2 55155  87.9132   3.9623 0001691  94.4681 265.6643 13.17649880168740
ONEWEB-0614             
1 55156U 23004S   26177.53967826  .00000359  00000+0  97683-3 0  9992
2 55156  87.8879  19.2151 0001983  81.6417 278.4936 13.11417594167063
ONEWEB-0616             
1 55157U 23004T   26177.48318406  .00000076  00000+0  16322-3 0  9998
2 55157  87.9132   4.0181 0000987 103.7538 256.3703 13.17649397168922
ONEWEB-0617             
1 55158U 23004U   26177.45151292 -.00000055  00000+0 -19134-3 0  9997
2 55158  87.8885  19.2237 0002175  83.4734 276.6641 13.11418899167076
ONEWEB-0618             
1 55159U 23004V   26177.71388809  .00004371  00000+0  24425-3 0  9995
2 55159  86.9094 173.7666 0009450 253.7768 106.2432 15.13211678183707
ONEWEB-0619             
1 55160U 23004W   26177.74305623  .00000020  00000+0  19394-4 0  9990
2 55160  87.9143   3.9481 0001745  77.4732 282.6594 13.17649319168851
ONEWEB-0620             
1 55161U 23004X   26177.29382253 -.00000257  00000+0 -76231-3 0  9991
2 55161  87.8882  19.2639 0002011  93.3937 266.7421 13.11417503167029
ONEWEB-0621             
1 55162U 23004Y   26177.54985397  .00000538  00000+0  14811-2 0  9993
2 55162  87.8890  19.2024 0001940  80.9176 279.2171 13.11415916167032
ONEWEB-0622             
1 55163U 23004Z   26177.55494301  .00000485  00000+0  13317-2 0  9996
2 55163  87.8891  19.2039 0002546  82.7014 277.4404 13.11415114167022
ONEWEB-0623             
1 55164U 23004AA  26177.43423470  .00000064  00000+0  13194-3 0  9990
2 55164  87.9130   4.0385 0002313  71.9448 288.1936 13.17649955168803
ONEWEB-0624             
1 55165U 23004AB  26177.72101536 -.00000193  00000+0 -56922-3 0  9990
2 55165  87.8949 348.6871 0001857  88.5813 271.5528 13.12927728169323
ONEWEB-0625             
1 55166U 23004AC  26177.50005942  .00000045  00000+0  83326-4 0  9994
2 55166  87.9133   4.0213 0001678  89.1587 270.9737 13.17649546168800
ONEWEB-0626             
1 55167U 23004AD  26177.48992054  .00000032  00000+0  48746-4 0  9994
2 55167  87.9131   4.0229 0002106 100.1882 259.9488 13.17657023168804
